[{"OBJECT_NAME":"IRIDIUM 138","OBJECT_ID":"2017-083B","EPOCH":"2026-03-09T21:30:43.184160","MEAN_MOTION":14.34218949,"ECCENTRICITY":0.00023523,"INCLINATION":86.4035,"RA_OF_ASC_NODE":3.1874,"ARG_OF_PERICENTER":77.6293,"MEAN_ANOMALY":282.5166,"EPHEMERIS_TYPE":0,"CLASSIFICATION_TYPE":"U","NORAD_CAT_ID":43071,"ELEMENT_SET_NO":999,"REV_AT_EPOCH":42990,"BSTAR":0.00011242147,"MEAN_MOTION_DOT":3.35e-6,"MEAN_MOTION_DDOT":0},{"OBJECT_NAME":"FENGYUN 1C DEB","OBJECT_ID":"1999-025ABA","EPOCH":"2026-03-09T21:07:58.681920","MEAN_MOTION":14.39772232,"ECCENTRICITY":0.00258027,"INCLINATION":98.9697,"RA_OF_ASC_NODE":184.2803,"ARG_OF_PERICENTER":180.5022,"MEAN_ANOMALY":305.262,"EPHEMERIS_TYPE":0,"CLASSIFICATION_TYPE":"U","NORAD_CAT_ID":30339,"ELEMENT_SET_NO":999,"REV_AT_EPOCH":98680,"BSTAR":0.0028139145,"MEAN_MOTION_DOT":8.819e-5,"MEAN_MOTION_DDOT":0}]
